{"type": "FeatureCollection", "features": [ {"type": "Feature", "properties": {"norad_id": 35674, "name": "COSMOS 2251 DEB", "group": "cosmos-2251-debris", "lat": -64.56681399396516, "lon": -67.44826365094724, "alt_km": 713.6416546693399, "timestamp": "2025-12-05T20:43:02.450054+00:00", "meta": {"OBJECT_NAME": "COSMOS 2251 DEB", "OBJECT_ID": "1993-036APR", "EPOCH": "2025-12-04T08:42:25.000704", "MEAN_MOTION": 14.5399019, "ECCENTRICITY": 0.00959981, "INCLINATION": 74.0595, "RA_OF_ASC_NODE": 332.3254, "ARG_OF_PERICENTER": 19.0839, "MEAN_ANOMALY": 341.3879, "EPHEMERIS_TYPE": 0, "CLASSIFICATION_TYPE": "U", "NORAD_CAT_ID": 35674, "ELEMENT_SET_NO": 999, "REV_AT_EPOCH": 85989, "BSTAR": 0.0039523781, "MEAN_MOTION_DOT": 0.00017726, "MEAN_MOTION_DDOT": 0}, "tle": {"line1": "1 35674U 93036APR 25338.36278936  .00017726  00000+0  39524-2 0  9998", "line2": "2 35674  74.0595 332.3254 0095998  19.0839 341.3879 14.53990190859894"}}, "geometry": {"type": "Point", "coordinates": [-67.44826365094724, -64.56681399396516]}}, {"type": "Feature", "properties": {"norad_id": 35703, "name": "COSMOS 2251 DEB", "group": "cosmos-2251-debris", "lat": 69.56056456102006, "lon": 106.67962683806675, "alt_km": 561.8836247249155, "timestamp": "2025-12-05T20:43:02.450064+00:00", "meta": {"OBJECT_NAME": "COSMOS 2251 DEB", "OBJECT_ID": "1993-036APY", "EPOCH": "2025-12-03T11:58:43.085856", "MEAN_MOTION": 14.90122639, "ECCENTRICITY": 0.00654009, "INCLINATION": 74.0435, "RA_OF_ASC_NODE": 61.2566, "ARG_OF_PERICENTER": 134.2302, "MEAN_ANOMALY": 226.4277, "EPHEMERIS_TYPE": 0, "CLASSIFICATION_TYPE": "U", "NORAD_CAT_ID": 35703, "ELEMENT_SET_NO": 999, "REV_AT_EPOCH": 66478, "BSTAR": 0.0011722584, "MEAN_MOTION_DOT": 0.00011791, "MEAN_MOTION_DDOT": 0}, "tle": {"line1": "1 35703U 93036APY 25337.49910979  .00011791  00000+0  11723-2 0  9991", "line2": "2 35703  74.0435  61.2566 0065400 134.2302 226.4277 14.90122639664787"}}, "geometry": {"type": "Point", "coordinates": [106.67962683806675, 69.56056456102006]}}, {"type": "Feature", "properties": {"norad_id": 35705, "name": "COSMOS 2251 DEB", "group": "cosmos-2251-debris", "lat": -46.56827645311361, "lon": 131.68149558542035, "alt_km": 683.0688832190381, "timestamp": "2025-12-05T20:43:02.450074+00:00", "meta": {"OBJECT_NAME": "COSMOS 2251 DEB", "OBJECT_ID": "1993-036AQA", "EPOCH": "2025-12-03T05:18:59.084352", "MEAN_MOTION": 14.71707631, "ECCENTRICITY": 0.0034156, "INCLINATION": 74.2742, "RA_OF_ASC_NODE": 154.0557, "ARG_OF_PERICENTER": 110.0272, "MEAN_ANOMALY": 250.4584, "EPHEMERIS_TYPE": 0, "CLASSIFICATION_TYPE": "U", "NORAD_CAT_ID": 35705, "ELEMENT_SET_NO": 999, "REV_AT_EPOCH": 85786, "BSTAR": 0.0035867, "MEAN_MOTION_DOT": 0.00022615, "MEAN_MOTION_DDOT": 0}, "tle": {"line1": "1 35705U 93036AQA 25337.22151718  .00022615  00000+0  35867-2 0  9994", "line2": "2 35705  74.2742 154.0557 0034156 110.0272 250.4584 14.71707631857866"}}, "geometry": {"type": "Point", "coordinates": [131.68149558542035, -46.56827645311361]}}, {"type": "Feature", "properties": {"norad_id": 35706, "name": "COSMOS 2251 DEB", "group": "cosmos-2251-debris", "lat": -42.434510717000656, "lon": 58.847545596715854, "alt_km": 1269.0974337491743, "timestamp": "2025-12-05T20:43:02.450084+00:00", "meta": {"OBJECT_NAME": "COSMOS 2251 DEB", "OBJECT_ID": "1993-036AQB", "EPOCH": "2025-12-01T13:14:17.826144", "MEAN_MOTION": 13.65877076, "ECCENTRICITY": 0.03419141, "INCLINATION": 73.888, "RA_OF_ASC_NODE": 81.2903, "ARG_OF_PERICENTER": 133.1878, "MEAN_ANOMALY": 229.8353, "EPHEMERIS_TYPE": 0, "CLASSIFICATION_TYPE": "U", "NORAD_CAT_ID": 35706, "ELEMENT_SET_NO": 999, "REV_AT_EPOCH": 61909, "BSTAR": 0.0013112957, "MEAN_MOTION_DOT": 1.587e-05, "MEAN_MOTION_DDOT": 0}, "tle": {"line1": "1 35706U 93036AQB 25335.55159521  .00001587  00000+0  13113-2 0  9994", "line2": "2 35706  73.8880  81.2903 0341914 133.1878 229.8353 13.65877076619090"}}, "geometry": {"type": "Point", "coordinates": [58.847545596715854, -42.434510717000656]}}, {"type": "Feature", "properties": {"norad_id": 35711, "name": "COSMOS 2251 DEB", "group": "cosmos-2251-debris", "lat": 47.44334032633286, "lon": 35.50160510882015, "alt_km": 730.2015557471568, "timestamp": "2025-12-05T20:43:02.450094+00:00", "meta": {"OBJECT_NAME": "COSMOS 2251 DEB", "OBJECT_ID": "1993-036AQG", "EPOCH": "2025-12-04T11:19:14.539584", "MEAN_MOTION": 14.63763095, "ECCENTRICITY": 0.0085131, "INCLINATION": 74.047, "RA_OF_ASC_NODE": 236.3228, "ARG_OF_PERICENTER": 339.3303, "MEAN_ANOMALY": 20.4427, "EPHEMERIS_TYPE": 0, "CLASSIFICATION_TYPE": "U", "NORAD_CAT_ID": 35711, "ELEMENT_SET_NO": 999, "REV_AT_EPOCH": 87650, "BSTAR": 0.00064568, "MEAN_MOTION_DOT": 3.517e-05, "MEAN_MOTION_DDOT": 0}, "tle": {"line1": "1 35711U 93036AQG 25338.47169606  .00003517  00000+0  64568-3 0  9995", "line2": "2 35711  74.0470 236.3228 0085131 339.3303  20.4427 14.63763095876508"}}, "geometry": {"type": "Point", "coordinates": [35.50160510882015, 47.44334032633286]}}, {"type": "Feature", "properties": {"norad_id": 35716, "name": "COSMOS 2251 DEB", "group": "cosmos-2251-debris", "lat": -56.699517096400015, "lon": -178.54924000347444, "alt_km": 721.1226187542243, "timestamp": "2025-12-05T20:43:02.450104+00:00", "meta": {"OBJECT_NAME": "COSMOS 2251 DEB", "OBJECT_ID": "1993-036AQM", "EPOCH": "2025-12-02T22:21:42.031872", "MEAN_MOTION": 14.60067337, "ECCENTRICITY": 0.00884366, "INCLINATION": 73.9934, "RA_OF_ASC_NODE": 212.9707, "ARG_OF_PERICENTER": 56.5126, "MEAN_ANOMALY": 321.7811, "EPHEMERIS_TYPE": 0, "CLASSIFICATION_TYPE": "U", "NORAD_CAT_ID": 35716, "ELEMENT_SET_NO": 999, "REV_AT_EPOCH": 87484, "BSTAR": 0.00016847867, "MEAN_MOTION_DOT": 8.23e-06, "MEAN_MOTION_DDOT": 0}, "tle": {"line1": "1 35716U 93036AQM 25336.93173648  .00000823  00000+0  16848-3 0  9995", "line2": "2 35716  73.9934 212.9707 0088436  56.5126 321.7811 14.60067337874842"}}, "geometry": {"type": "Point", "coordinates": [-178.54924000347444, -56.699517096400015]}}, {"type": "Feature", "properties": {"norad_id": 35717, "name": "COSMOS 2251 DEB", "group": "cosmos-2251-debris", "lat": -60.87438924263572, "lon": 80.70742881235466, "alt_km": 819.362356235034, "timestamp": "2025-12-05T20:43:02.450113+00:00", "meta": {"OBJECT_NAME": "COSMOS 2251 DEB", "OBJECT_ID": "1993-036AQN", "EPOCH": "2025-12-03T10:50:01.737600", "MEAN_MOTION": 14.38379287, "ECCENTRICITY": 0.00765766, "INCLINATION": 74.1608, "RA_OF_ASC_NODE": 234.4851, "ARG_OF_PERICENTER": 96.9396, "MEAN_ANOMALY": 264.0477, "EPHEMERIS_TYPE": 0, "CLASSIFICATION_TYPE": "U", "NORAD_CAT_ID": 35717, "ELEMENT_SET_NO": 999, "REV_AT_EPOCH": 73966, "BSTAR": 0.0017319634, "MEAN_MOTION_DOT": 5.441e-05, "MEAN_MOTION_DDOT": 0}, "tle": {"line1": "1 35717U 93036AQN 25337.45140900  .00005441  00000+0  17320-2 0  9995", "line2": "2 35717  74.1608 234.4851 0076576  96.9396 264.0477 14.38379287739664"}}, "geometry": {"type": "Point", "coordinates": [80.70742881235466, -60.87438924263572]}}, {"type": "Feature", "properties": {"norad_id": 35718, "name": "COSMOS 2251 DEB", "group": "cosmos-2251-debris", "lat": -34.74947917786606, "lon": 131.81804015501257, "alt_km": 677.3611464855521, "timestamp": "2025-12-05T20:43:02.450123+00:00", "meta": {"OBJECT_NAME": "COSMOS 2251 DEB", "OBJECT_ID": "1993-036AQP", "EPOCH": "2025-12-04T18:43:19.677504", "MEAN_MOTION": 14.68432835, "ECCENTRICITY": 0.00118189, "INCLINATION": 74.0309, "RA_OF_ASC_NODE": 145.3704, "ARG_OF_PERICENTER": 194.3917, "MEAN_ANOMALY": 165.6918, "EPHEMERIS_TYPE": 0, "CLASSIFICATION_TYPE": "U", "NORAD_CAT_ID": 35718, "ELEMENT_SET_NO": 999, "REV_AT_EPOCH": 65723, "BSTAR": 0.0036616513, "MEAN_MOTION_DOT": 0.00021253, "MEAN_MOTION_DDOT": 0}, "tle": {"line1": "1 35718U 93036AQP 25338.78008886  .00021253  00000+0  36617-2 0  9998", "line2": "2 35718  74.0309 145.3704 0011818 194.3917 165.6918 14.68432835657239"}}, "geometry": {"type": "Point", "coordinates": [131.81804015501257, -34.74947917786606]}}, {"type": "Feature", "properties": {"norad_id": 35721, "name": "COSMOS 2251 DEB", "group": "cosmos-2251-debris", "lat": 62.5364280390701, "lon": -23.227433340201753, "alt_km": 843.6956467588043, "timestamp": "2025-12-05T20:43:02.450133+00:00", "meta": {"OBJECT_NAME": "COSMOS 2251 DEB", "OBJECT_ID": "1993-036AQS", "EPOCH": "2025-11-29T21:54:16.243200", "MEAN_MOTION": 14.34192363, "ECCENTRICITY": 0.01464404, "INCLINATION": 73.9503, "RA_OF_ASC_NODE": 201.3539, "ARG_OF_PERICENTER": 350.3358, "MEAN_ANOMALY": 9.498, "EPHEMERIS_TYPE": 0, "CLASSIFICATION_TYPE": "U", "NORAD_CAT_ID": 35721, "ELEMENT_SET_NO": 999, "REV_AT_EPOCH": 57605, "BSTAR": 0.0014885779, "MEAN_MOTION_DOT": 4.68e-05, "MEAN_MOTION_DDOT": 0}, "tle": {"line1": "1 35721U 93036AQS 25333.91268800  .00004680  00000+0  14886-2 0  9995", "line2": "2 35721  73.9503 201.3539 0146440 350.3358   9.4980 14.34192363576055"}}, "geometry": {"type": "Point", "coordinates": [-23.227433340201753, 62.5364280390701]}}, {"type": "Feature", "properties": {"norad_id": 35724, "name": "COSMOS 2251 DEB", "group": "cosmos-2251-debris", "lat": -3.852219905009446, "lon": 136.87668311896735, "alt_km": 689.2059151927924, "timestamp": "2025-12-05T20:43:02.450143+00:00", "meta": {"OBJECT_NAME": "COSMOS 2251 DEB", "OBJECT_ID": "1993-036AQV", "EPOCH": "2025-11-30T08:09:18.426240", "MEAN_MOTION": 14.58149733, "ECCENTRICITY": 0.00590888, "INCLINATION": 74.0317, "RA_OF_ASC_NODE": 326.2795, "ARG_OF_PERICENTER": 123.6188, "MEAN_ANOMALY": 237.0635, "EPHEMERIS_TYPE": 0, "CLASSIFICATION_TYPE": "U", "NORAD_CAT_ID": 35724, "ELEMENT_SET_NO": 999, "REV_AT_EPOCH": 87348, "BSTAR": 0.00024156118, "MEAN_MOTION_DOT": 1.11e-05, "MEAN_MOTION_DDOT": 0}, "tle": {"line1": "1 35724U 93036AQV 25334.33979660  .00001110  00000+0  24156-3 0  9995", "line2": "2 35724  74.0317 326.2795 0059088 123.6188 237.0635 14.58149733873489"}}, "geometry": {"type": "Point", "coordinates": [136.87668311896735, -3.852219905009446]}}]}